{
  "norad_id": 43602,
  "name": "BEIDOU-3 M12",
  "history": [
    {
      "epoch": "2026-03-19T05:41:05.883360",
      "apogee_km": 21551.885438001573,
      "perigee_km": 21504.82727638321,
      "latitude_deg": -9.751872572915271,
      "longitude_deg": -141.0601296001114,
      "semi_major_axis_km": 27906.49335719239,
      "eccentricity": 0.00084314,
      "inclination_deg": 54.1818,
      "raan_deg": 184.0904,
      "arg_perigee_deg": 38.9393,
      "mean_anomaly_deg": 321.1247,
      "mean_motion_rev_day": 1.86227949
    }
  ]
}