{"fetched_at":"2026-03-29T02:12:04Z","count":15717,"tles":[{"name":"BEIDOU-3 M12 (C26)","line1":"1 43602U 18067A   26078.23687365  .00000026  00000+0  00000+0 0  9996","line2":"2 43602  54.1818 184.0904 0008431  38.9393 321.1247  1.86227949 51443","category":"GPS"}]}